{"type": "FeatureCollection", "features": [ {"type": "Feature", "properties": {"norad_id": 66956, "name": "HULIANWANG DIGUI-117", "group": "last-30-days", "lat": 0.8176997379052892, "lon": -15.615847880617235, "alt_km": 1011.6658271086826, "timestamp": "2025-12-17T17:50:17.975534+00:00", "meta": {"OBJECT_NAME": "HULIANWANG DIGUI-117", "OBJECT_ID": "2025-287D", "EPOCH": "2025-12-16T06:45:06.569856", "MEAN_MOTION": 13.69018692, "ECCENTRICITY": 0.00077617, "INCLINATION": 86.4974, "RA_OF_ASC_NODE": 344.867, "ARG_OF_PERICENTER": 181.5999, "MEAN_ANOMALY": 178.5137, "EPHEMERIS_TYPE": 0, "CLASSIFICATION_TYPE": "U", "NORAD_CAT_ID": 66956, "ELEMENT_SET_NO": 999, "REV_AT_EPOCH": 101, "BSTAR": 2.3352809e-05, "MEAN_MOTION_DOT": 3.7e-07, "MEAN_MOTION_DDOT": 0}, "tle": {"line1": "1 66956U 25287D   25350.28132604  .00000037  00000+0  23353-4 0  9996", "line2": "2 66956  86.4974 344.8670 0007761 181.5999 178.5137 13.69018692  1016"}}, "geometry": {"type": "Point", "coordinates": [-15.615847880617235, 0.8176997379052892]}}, {"type": "Feature", "properties": {"norad_id": 66957, "name": "HULIANWANG DIGUI-118", "group": "last-30-days", "lat": 1.0973985166311593, "lon": -15.603723121126741, "alt_km": 1013.1854420216614, "timestamp": "2025-12-17T17:50:17.975544+00:00", "meta": {"OBJECT_NAME": "HULIANWANG DIGUI-118", "OBJECT_ID": "2025-287E", "EPOCH": "2025-12-17T07:18:17.217216", "MEAN_MOTION": 13.68572695, "ECCENTRICITY": 0.00077362, "INCLINATION": 86.4948, "RA_OF_ASC_NODE": 344.489, "ARG_OF_PERICENTER": 175.7001, "MEAN_ANOMALY": 184.4226, "EPHEMERIS_TYPE": 0, "CLASSIFICATION_TYPE": "U", "NORAD_CAT_ID": 66957, "ELEMENT_SET_NO": 999, "REV_AT_EPOCH": 115, "BSTAR": 0.00015903976, "MEAN_MOTION_DOT": 1.53e-06, "MEAN_MOTION_DDOT": 0}, "tle": {"line1": "1 66957U 25287E   25351.30436594  .00000153  00000+0  15904-3 0  9997", "line2": "2 66957  86.4948 344.4890 0007736 175.7001 184.4226 13.68572695  1156"}}, "geometry": {"type": "Point", "coordinates": [-15.603723121126741, 1.0973985166311593]}}, {"type": "Feature", "properties": {"norad_id": 66958, "name": "CZ-6A R/B", "group": "last-30-days", "lat": 82.12613109114375, "lon": 137.98065776869686, "alt_km": 826.9602246776358, "timestamp": "2025-12-17T17:50:17.975557+00:00", "meta": {"OBJECT_NAME": "CZ-6A R/B", "OBJECT_ID": "2025-287F", "EPOCH": "2025-12-17T07:03:07.975584", "MEAN_MOTION": 13.94920588, "ECCENTRICITY": 0.01073329, "INCLINATION": 86.5059, "RA_OF_ASC_NODE": 344.3692, "ARG_OF_PERICENTER": 88.4635, "MEAN_ANOMALY": 272.883, "EPHEMERIS_TYPE": 0, "CLASSIFICATION_TYPE": "U", "NORAD_CAT_ID": 66958, "ELEMENT_SET_NO": 999, "REV_AT_EPOCH": 117, "BSTAR": 8.0210107e-05, "MEAN_MOTION_DOT": 1.32e-06, "MEAN_MOTION_DDOT": 0}, "tle": {"line1": "1 66958U 25287F   25351.29384231  .00000132  00000+0  80210-4 0  9996", "line2": "2 66958  86.5059 344.3692 0107332  88.4635 272.8830 13.94920588  1178"}}, "geometry": {"type": "Point", "coordinates": [137.98065776869686, 82.12613109114375]}}, {"type": "Feature", "properties": {"norad_id": 66959, "name": "STARLINK-35887", "group": "last-30-days", "lat": 41.88580488889905, "lon": -149.15681779687733, "alt_km": 301.6362772911898, "timestamp": "2025-12-17T17:50:17.975567+00:00", "meta": {"OBJECT_NAME": "STARLINK-35887", "OBJECT_ID": "2025-288A", "EPOCH": "2025-12-16T14:00:03.000384", "MEAN_MOTION": 15.91064311, "ECCENTRICITY": 0.00016179, "INCLINATION": 43.0008, "RA_OF_ASC_NODE": 143.7995, "ARG_OF_PERICENTER": 269.3707, "MEAN_ANOMALY": 2.8159, "EPHEMERIS_TYPE": 0, "CLASSIFICATION_TYPE": "U", "NORAD_CAT_ID": 66959, "ELEMENT_SET_NO": 999, "REV_AT_EPOCH": 245, "BSTAR": -0.0037977459, "MEAN_MOTION_DOT": -0.01103717, "MEAN_MOTION_DDOT": 0}, "tle": {"line1": "1 66959U 25288A   25350.58336806 -.01103717  00000+0 -37977-2 0  9990", "line2": "2 66959  43.0008 143.7995 0001617 269.3707   2.8159 15.91064311  2456"}}, "geometry": {"type": "Point", "coordinates": [-149.15681779687733, 41.88580488889905]}}, {"type": "Feature", "properties": {"norad_id": 66960, "name": "STARLINK-35879", "group": "last-30-days", "lat": 42.18388557780836, "lon": -146.86315139443514, "alt_km": 301.5253502074547, "timestamp": "2025-12-17T17:50:17.975579+00:00", "meta": {"OBJECT_NAME": "STARLINK-35879", "OBJECT_ID": "2025-288B", "EPOCH": "2025-12-16T14:00:03.000384", "MEAN_MOTION": 15.91117419, "ECCENTRICITY": 0.00016613, "INCLINATION": 43.0008, "RA_OF_ASC_NODE": 143.7955, "ARG_OF_PERICENTER": 270.1089, "MEAN_ANOMALY": 3.6197, "EPHEMERIS_TYPE": 0, "CLASSIFICATION_TYPE": "U", "NORAD_CAT_ID": 66960, "ELEMENT_SET_NO": 999, "REV_AT_EPOCH": 245, "BSTAR": -0.0038106711, "MEAN_MOTION_DOT": -0.0110978, "MEAN_MOTION_DDOT": 0}, "tle": {"line1": "1 66960U 25288B   25350.58336806 -.01109780  00000+0 -38107-2 0  9994", "line2": "2 66960  43.0008 143.7955 0001661 270.1089   3.6197 15.91117419  2455"}}, "geometry": {"type": "Point", "coordinates": [-146.86315139443514, 42.18388557780836]}}, {"type": "Feature", "properties": {"norad_id": 66961, "name": "STARLINK-35761", "group": "last-30-days", "lat": 42.45251442692938, "lon": -144.37772508994476, "alt_km": 301.5010818936589, "timestamp": "2025-12-17T17:50:17.975589+00:00", "meta": {"OBJECT_NAME": "STARLINK-35761", "OBJECT_ID": "2025-288C", "EPOCH": "2025-12-16T14:00:03.000384", "MEAN_MOTION": 15.91193502, "ECCENTRICITY": 0.00016481, "INCLINATION": 43.0009, "RA_OF_ASC_NODE": 143.7913, "ARG_OF_PERICENTER": 269.4345, "MEAN_ANOMALY": 5.9922, "EPHEMERIS_TYPE": 0, "CLASSIFICATION_TYPE": "U", "NORAD_CAT_ID": 66961, "ELEMENT_SET_NO": 999, "REV_AT_EPOCH": 245, "BSTAR": -0.0039038489, "MEAN_MOTION_DOT": -0.01286068, "MEAN_MOTION_DDOT": 0.00047494021}, "tle": {"line1": "1 66961U 25288C   25350.58336806 -.01286068  47494-3 -39038-2 0  9996", "line2": "2 66961  43.0009 143.7913 0001648 269.4345   5.9922 15.91193502  2450"}}, "geometry": {"type": "Point", "coordinates": [-144.37772508994476, 42.45251442692938]}}, {"type": "Feature", "properties": {"norad_id": 66962, "name": "STARLINK-35874", "group": "last-30-days", "lat": 42.73425849701146, "lon": -140.90887532279334, "alt_km": 301.4818706772094, "timestamp": "2025-12-17T17:50:17.975599+00:00", "meta": {"OBJECT_NAME": "STARLINK-35874", "OBJECT_ID": "2025-288D", "EPOCH": "2025-12-16T14:00:03.000384", "MEAN_MOTION": 15.91258062, "ECCENTRICITY": 0.00016798, "INCLINATION": 43.0009, "RA_OF_ASC_NODE": 143.7852, "ARG_OF_PERICENTER": 265.2732, "MEAN_ANOMALY": 12.5507, "EPHEMERIS_TYPE": 0, "CLASSIFICATION_TYPE": "U", "NORAD_CAT_ID": 66962, "ELEMENT_SET_NO": 999, "REV_AT_EPOCH": 245, "BSTAR": -0.0039550127, "MEAN_MOTION_DOT": -0.01307049, "MEAN_MOTION_DDOT": 0.00048952147}, "tle": {"line1": "1 66962U 25288D   25350.58336806 -.01307049  48952-3 -39550-2 0  9999", "line2": "2 66962  43.0009 143.7852 0001679 265.2732  12.5507 15.91258062  2457"}}, "geometry": {"type": "Point", "coordinates": [-140.90887532279334, 42.73425849701146]}}, {"type": "Feature", "properties": {"norad_id": 66963, "name": "STARLINK-36133", "group": "last-30-days", "lat": 42.874602231796274, "lon": -138.32795582690056, "alt_km": 301.4421246790389, "timestamp": "2025-12-17T17:50:17.975609+00:00", "meta": {"OBJECT_NAME": "STARLINK-36133", "OBJECT_ID": "2025-288E", "EPOCH": "2025-12-16T14:00:03.000384", "MEAN_MOTION": 15.913225, "ECCENTRICITY": 0.0001662, "INCLINATION": 43.001, "RA_OF_ASC_NODE": 143.7809, "ARG_OF_PERICENTER": 264.2062, "MEAN_ANOMALY": 15.3668, "EPHEMERIS_TYPE": 0, "CLASSIFICATION_TYPE": "U", "NORAD_CAT_ID": 66963, "ELEMENT_SET_NO": 999, "REV_AT_EPOCH": 245, "BSTAR": -0.0040224604, "MEAN_MOTION_DOT": -0.01333473, "MEAN_MOTION_DDOT": 0.00050810595}, "tle": {"line1": "1 66963U 25288E   25350.58336806 -.01333473  50811-3 -40225-2 0  9998", "line2": "2 66963  43.0010 143.7809 0001662 264.2062  15.3668 15.91322500  2457"}}, "geometry": {"type": "Point", "coordinates": [-138.32795582690056, 42.874602231796274]}}, {"type": "Feature", "properties": {"norad_id": 66964, "name": "STARLINK-36104", "group": "last-30-days", "lat": 42.95933534707176, "lon": -135.60096450879365, "alt_km": 301.3857669850913, "timestamp": "2025-12-17T17:50:17.975620+00:00", "meta": {"OBJECT_NAME": "STARLINK-36104", "OBJECT_ID": "2025-288F", "EPOCH": "2025-12-16T14:00:03.000384", "MEAN_MOTION": 15.91381929, "ECCENTRICITY": 0.00016875, "INCLINATION": 43.0012, "RA_OF_ASC_NODE": 143.776, "ARG_OF_PERICENTER": 264.1667, "MEAN_ANOMALY": 17.2313, "EPHEMERIS_TYPE": 0, "CLASSIFICATION_TYPE": "U", "NORAD_CAT_ID": 66964, "ELEMENT_SET_NO": 999, "REV_AT_EPOCH": 245, "BSTAR": -0.0040599566, "MEAN_MOTION_DOT": -0.01349864, "MEAN_MOTION_DDOT": 0.00051989801}, "tle": {"line1": "1 66964U 25288F   25350.58336806 -.01349864  51990-3 -40600-2 0  9996", "line2": "2 66964  43.0012 143.7760 0001687 264.1667  17.2313 15.91381929  2451"}}, "geometry": {"type": "Point", "coordinates": [-135.60096450879365, 42.95933534707176]}}, {"type": "Feature", "properties": {"norad_id": 66965, "name": "STARLINK-36067", "group": "last-30-days", "lat": 42.978964447050075, "lon": -132.9374469782419, "alt_km": 301.3550664089489, "timestamp": "2025-12-17T17:50:17.975630+00:00", "meta": {"OBJECT_NAME": "STARLINK-36067", "OBJECT_ID": "2025-288G", "EPOCH": "2025-12-16T14:00:03.000384", "MEAN_MOTION": 15.91459647, "ECCENTRICITY": 0.00016181, "INCLINATION": 43.0011, "RA_OF_ASC_NODE": 143.7715, "ARG_OF_PERICENTER": 269.0061, "MEAN_ANOMALY": 14.2021, "EPHEMERIS_TYPE": 0, "CLASSIFICATION_TYPE": "U", "NORAD_CAT_ID": 66965, "ELEMENT_SET_NO": 999, "REV_AT_EPOCH": 245, "BSTAR": -0.0041720134, "MEAN_MOTION_DOT": -0.01392205, "MEAN_MOTION_DDOT": 0.00055057089}, "tle": {"line1": "1 66965U 25288G   25350.58336806 -.01392205  55057-3 -41720-2 0  9996", "line2": "2 66965  43.0011 143.7715 0001618 269.0061  14.2021 15.91459647  2453"}}, "geometry": {"type": "Point", "coordinates": [-132.9374469782419, 42.978964447050075]}}]}